LANDSAT 9               
1 49260U 21088A   23299.18424477  .00000585  00000+0  13995-3 0  9999
2 49260  98.2173   7.4251 0001075  92.3929 267.7393 14.57120126110478
